[{"OBJECT_NAME":"STARLINK-4584","OBJECT_ID":"2022-101AW","EPOCH":"2026-03-09T22:33:03.379680","MEAN_MOTION":15.08833172,"ECCENTRICITY":0.0001191,"INCLINATION":53.2162,"RA_OF_ASC_NODE":52.9445,"ARG_OF_PERICENTER":91.0123,"MEAN_ANOMALY":269.1006,"EPHEMERIS_TYPE":0,"CLASSIFICATION_TYPE":"U","NORAD_CAT_ID":53571,"ELEMENT_SET_NO":999,"REV_AT_EPOCH":19717,"BSTAR":-2.97862e-7,"MEAN_MOTION_DOT":-2.93e-6,"MEAN_MOTION_DDOT":0},{"OBJECT_NAME":"LEMUR-2-ESPERANZA","OBJECT_ID":"2025-061B","EPOCH":"2026-03-09T20:59:51.017856","MEAN_MOTION":15.12770808,"ECCENTRICITY":0.00169494,"INCLINATION":97.5568,"RA_OF_ASC_NODE":45.1407,"ARG_OF_PERICENTER":244.877,"MEAN_ANOMALY":115.0702,"EPHEMERIS_TYPE":0,"CLASSIFICATION_TYPE":"U","NORAD_CAT_ID":63352,"ELEMENT_SET_NO":999,"REV_AT_EPOCH":5257,"BSTAR":0.00034972806,"MEAN_MOTION_DOT":6.09e-5,"MEAN_MOTION_DDOT":0}]
